{
  "type": "FeatureCollection",
  "features": [
    {
      "type": "Feature",
      "properties": {
        "norad_id": 41026,
        "name": "YAOGAN-28",
        "group": "resource",
        "lat": -82.3388431108891,
        "lon": -114.54267967760943,
        "alt_km": 508.1613026668783,
        "timestamp": "2025-12-25T22:42:16.653669+00:00",
        "meta_object_name": "YAOGAN-28",
        "meta_object_id": "2015-064A",
        "meta_epoch": "2025-12-25T18:23:03.333984",
        "meta_mean_motion": 15.24557783,
        "meta_eccentricity": 0.0012658,
        "meta_inclination": 97.2816,
        "meta_ra_of_asc_node": 137.1925,
        "meta_arg_of_pericenter": 84.7473,
        "meta_mean_anomaly": 275.5209,
        "meta_ephemeris_type": 0,
        "meta_classification_type": "U",
        "meta_norad_cat_id": 41026,
        "meta_element_set_no": 999,
        "meta_rev_at_epoch": 56423,
        "meta_bstar": 0.00033602,
        "meta_mean_motion_dot": 8.225e-05,
        "meta_mean_motion_ddot": 0,
        "tle_line1": "1 41026U 15064A   25359.76601081  .00008225  00000+0  33602-3 0  9995",
        "tle_line2": "2 41026  97.2816 137.1925 0012658  84.7473 275.5209 15.24557783564238"
      },
      "geometry": {
        "type": "Point",
        "coordinates": [
          -114.54267967760943,
          -82.3388431108891
        ]
      }
    },
    {
      "type": "Feature",
      "properties": {
        "norad_id": 41038,
        "name": "YAOGAN-29",
        "group": "resource",
        "lat": -11.565317951100797,
        "lon": -158.49454063408132,
        "alt_km": 624.0288965125656,
        "timestamp": "2025-12-25T22:42:16.653679+00:00",
        "meta_object_name": "YAOGAN-29",
        "meta_object_id": "2015-069A",
        "meta_epoch": "2025-12-25T18:36:16.612128",
        "meta_mean_motion": 14.82897658,
        "meta_eccentricity": 9.32e-05,
        "meta_inclination": 98.0207,
        "meta_ra_of_asc_node": 22.9876,
        "meta_arg_of_pericenter": 160.9608,
        "meta_mean_anomaly": 199.164,
        "meta_ephemeris_type": 0,
        "meta_classification_type": "U",
        "meta_norad_cat_id": 41038,
        "meta_element_set_no": 999,
        "meta_rev_at_epoch": 54492,
        "meta_bstar": 0.00011145,
        "meta_mean_motion_dot": 8.49e-06,
        "meta_mean_motion_ddot": 0,
        "tle_line1": "1 41038U 15069A   25359.77519227  .00000849  00000+0  11145-3 0  9996",
        "tle_line2": "2 41038  98.0207  22.9876 0000932 160.9608 199.1640 14.82897658544924"
      },
      "geometry": {
        "type": "Point",
        "coordinates": [
          -158.49454063408132,
          -11.565317951100797
        ]
      }
    },
    {
      "type": "Feature",
      "properties": {
        "norad_id": 41167,
        "name": "KENT RIDGE 1",
        "group": "resource",
        "lat": -3.216163551006813,
        "lon": 101.00930523311101,
        "alt_km": 493.19235077267786,
        "timestamp": "2025-12-25T22:42:16.653690+00:00",
        "meta_object_name": "KENT RIDGE 1",
        "meta_object_id": "2015-077B",
        "meta_epoch": "2025-12-25T16:28:00.882048",
        "meta_mean_motion": 15.21731933,
        "meta_eccentricity": 0.0008537,
        "meta_inclination": 14.9792,
        "meta_ra_of_asc_node": 115.0675,
        "meta_arg_of_pericenter": 313.4673,
        "meta_mean_anomaly": 46.4939,
        "meta_ephemeris_type": 0,
        "meta_classification_type": "U",
        "meta_norad_cat_id": 41167,
        "meta_element_set_no": 999,
        "meta_rev_at_epoch": 55461,
        "meta_bstar": 0.00017413,
        "meta_mean_motion_dot": 4.822e-05,
        "meta_mean_motion_ddot": 0,
        "tle_line1": "1 41167U 15077B   25359.68612132  .00004822  00000+0  17413-3 0  9996",
        "tle_line2": "2 41167  14.9792 115.0675 0008537 313.4673  46.4939 15.21731933554619"
      },
      "geometry": {
        "type": "Point",
        "coordinates": [
          101.00930523311101,
          -3.216163551006813
        ]
      }
    },
    {
      "type": "Feature",
      "properties": {
        "norad_id": 41194,
        "name": "GAOFEN-4",
        "group": "resource",
        "lat": 0.20261581452568264,
        "lon": -179.0294761801461,
        "alt_km": 35774.88894624266,
        "timestamp": "2025-12-25T22:42:16.653702+00:00",
        "meta_object_name": "GAOFEN-4",
        "meta_object_id": "2015-083A",
        "meta_epoch": "2025-12-25T18:48:31.585824",
        "meta_mean_motion": 1.00269663,
        "meta_eccentricity": 0.0002819,
        "meta_inclination": 0.2017,
        "meta_ra_of_asc_node": 81.9193,
        "meta_arg_of_pericenter": 93.7327,
        "meta_mean_anomaly": 306.7256,
        "meta_ephemeris_type": 0,
        "meta_classification_type": "U",
        "meta_norad_cat_id": 41194,
        "meta_element_set_no": 999,
        "meta_rev_at_epoch": 3679,
        "meta_bstar": 0,
        "meta_mean_motion_dot": -3.13e-06,
        "meta_mean_motion_ddot": 0,
        "tle_line1": "1 41194U 15083A   25359.78369891 -.00000313  00000+0  00000+0 0  9997",
        "tle_line2": "2 41194   0.2017  81.9193 0002819  93.7327 306.7256  1.00269663 36790"
      },
      "geometry": {
        "type": "Point",
        "coordinates": [
          -179.0294761801461,
          0.20261581452568264
        ]
      }
    },
    {
      "type": "Feature",
      "properties": {
        "norad_id": 41240,
        "name": "JASON-3",
        "group": "resource",
        "lat": -33.72837754181705,
        "lon": 112.791102027959,
        "alt_km": 1312.619734486957,
        "timestamp": "2025-12-25T22:42:16.653713+00:00",
        "meta_object_name": "JASON-3",
        "meta_object_id": "2016-002A",
        "meta_epoch": "2025-12-25T17:18:22.137984",
        "meta_mean_motion": 12.8762709,
        "meta_eccentricity": 0.0007309,
        "meta_inclination": 66.0406,
        "meta_ra_of_asc_node": 130.5323,
        "meta_arg_of_pericenter": 271.5792,
        "meta_mean_anomaly": 88.439,
        "meta_ephemeris_type": 0,
        "meta_classification_type": "U",
        "meta_norad_cat_id": 41240,
        "meta_element_set_no": 999,
        "meta_rev_at_epoch": 46491,
        "meta_bstar": 0.00013221,
        "meta_mean_motion_dot": -2.9e-07,
        "meta_mean_motion_ddot": 0,
        "tle_line1": "1 41240U 16002A   25359.72108956 -.00000029  00000+0  13221-3 0  9995",
        "tle_line2": "2 41240  66.0406 130.5323 0007309 271.5792  88.4390 12.87627090464912"
      },
      "geometry": {
        "type": "Point",
        "coordinates": [
          112.791102027959,
          -33.72837754181705
        ]
      }
    },
    {
      "type": "Feature",
      "properties": {
        "norad_id": 41335,
        "name": "SENTINEL-3A",
        "group": "resource",
        "lat": 72.46891551013505,
        "lon": -86.49214239378996,
        "alt_km": 795.0442863241296,
        "timestamp": "2025-12-25T22:42:16.653723+00:00",
        "meta_object_name": "SENTINEL-3A",
        "meta_object_id": "2016-011A",
        "meta_epoch": "2025-12-25T15:28:49.823904",
        "meta_mean_motion": 14.2673561,
        "meta_eccentricity": 8.839e-05,
        "meta_inclination": 98.6297,
        "meta_ra_of_asc_node": 64.4774,
        "meta_arg_of_pericenter": 97.4385,
        "meta_mean_anomaly": 262.6896,
        "meta_ephemeris_type": 0,
        "meta_classification_type": "U",
        "meta_norad_cat_id": 41335,
        "meta_element_set_no": 999,
        "meta_rev_at_epoch": 51331,
        "meta_bstar": 7.7011196e-05,
        "meta_mean_motion_dot": 1.43e-06,
        "meta_mean_motion_ddot": 0,
        "tle_line1": "1 41335U 16011A   25359.64502111  .00000143  00000+0  77011-4 0  9996",
        "tle_line2": "2 41335  98.6297  64.4774 0000883  97.4385 262.6896 14.26735610513313"
      },
      "geometry": {
        "type": "Point",
        "coordinates": [
          -86.49214239378996,
          72.46891551013505
        ]
      }
    },
    {
      "type": "Feature",
      "properties": {
        "norad_id": 41556,
        "name": "ZIYUAN 3-02 (ZY 3-02)",
        "group": "resource",
        "lat": 23.091115763582362,
        "lon": 70.71391481196946,
        "alt_km": 509.60751419970984,
        "timestamp": "2025-12-25T22:42:16.653733+00:00",
        "meta_object_name": "ZIYUAN 3-02 (ZY 3-02)",
        "meta_object_id": "2016-033A",
        "meta_epoch": "2025-12-25T17:51:58.614624",
        "meta_mean_motion": 15.2123873,
        "meta_eccentricity": 0.0011475,
        "meta_inclination": 97.4024,
        "meta_ra_of_asc_node": 73.6933,
        "meta_arg_of_pericenter": 197.6828,
        "meta_mean_anomaly": 162.401,
        "meta_ephemeris_type": 0,
        "meta_classification_type": "U",
        "meta_norad_cat_id": 41556,
        "meta_element_set_no": 999,
        "meta_rev_at_epoch": 53161,
        "meta_bstar": 0.0003487,
        "meta_mean_motion_dot": 7.732e-05,
        "meta_mean_motion_ddot": 0,
        "tle_line1": "1 41556U 16033A   25359.74442841  .00007732  00000+0  34870-3 0  9995",
        "tle_line2": "2 41556  97.4024  73.6933 0011475 197.6828 162.4010 15.21238730531611"
      },
      "geometry": {
        "type": "Point",
        "coordinates": [
          70.71391481196946,
          23.091115763582362
        ]
      }
    }
  ]
}